SL-14 R/B               
1 16792U 86046B   26079.38203821  .00000408  00000+0  44169-4 0  9999
2 16792  82.4790  70.0755 0022798 188.8755 171.2062 14.85600130127996
SL-14 R/B               
1 16882U 86055B   26079.36769084  .00000374  00000+0  40285-4 0  9992
2 16882  82.5181 116.6361 0017491 299.2069  71.1690 14.85651520120953
AJISAI (EGS)            
1 16908U 86061A   26079.56510743 -.00000115  00000+0 -12245-3 0  9995
2 16908  50.0094  59.9043 0011307 315.0530 150.9447 12.44515677469352
SL-14 R/B               
1 17567U 87024B   26079.41153808  .00000406  00000+0  43509-4 0  9995
2 17567  82.5245  82.6830 0017134 221.5933 138.3981 14.86141678 89727
COSMOS 1833             
1 17589U 87027A   26079.33715547 -.00000242  00000+0 -10364-3 0  9999
2 17589  70.9195 303.6407 0023711 199.2046 160.8184 14.13051328 11829
SL-16 R/B               
1 17590U 87027B   26079.42111955 -.00000127  00000+0 -39175-4 0  9998
2 17590  70.9993 253.8789 0003034 117.5861 242.5571 14.17166613 16865
SL-14 R/B               
1 17912U 87038B   26079.54675249  .00000401  00000+0  43626-4 0  9991
2 17912  82.4984 286.5779 0020468 126.1406 234.1708 14.85378480 80844
COSMOS 1844             
1 17973U 87041A   26079.50244786  .00000102  00000+0  77920-4 0  9998
2 17973  70.9009  11.3690 0030572   2.1043 358.0201 14.14551601  5115
SL-14 R/B               
1 18153U 87055B   26079.45436823  .00000403  00000+0  43635-4 0  9993
2 18153  82.5023 338.8884 0020171 342.3294  17.7218 14.85640159 71535
COSMOS 1867             
1 18187U 87060A   26079.54925112 -.00000036  00000+0  24190-4 0  9998
2 18187  65.0094 276.2922 0014651 279.2786  80.6641 14.31504634 21491
SL-14 R/B               
1 18749U 88001B   26079.38309686  .00000457  00000+0  50017-4 0  9995
2 18749  82.5161 185.3055 0017592 198.5177 161.5401 14.85539543 43612
COSMOS 1933             
1 18958U 88020A   26079.40268629  .00003726  00000+0  18143-3 0  9997
2 18958  82.5106 240.3093 0004743 147.6353 212.5172 15.18076490 51853
